{
  "specialties": [
    {
      "id": "1",
      "code": "B057",
      "nameRu": "Информационные технологии",
      "nameKz": "Ақпараттық технологиялар",
      "universityRu": "Казахский национальный университет им. аль-Фараби",
      "universityKz": "Әл-Фараби атындағы Қазақ ұлттық университеті",
      "city": "Almaty",
      "type": "national",
      "threshold2024": 118,
      "grants2024": 150,
      "profileSubjects": ["Математика", "Физика"]
    },
    {
      "id": "2",
      "code": "B058",
      "nameRu": "Программная инженерия",
      "nameKz": "Бағдарламалық инженерия",
      "universityRu": "Международный университет информационных технологий (МУИТ)",
      "universityKz": "Халықаралық ақпараттық технологиялар университеті",
      "city": "Almaty",
      "type": "private",
      "threshold2024": 112,
      "grants2024": 120,
      "profileSubjects": ["Математика", "Физика"]
    },
    {
      "id": "3",
      "code": "B059",
      "nameRu": "Строительство",
      "nameKz": "Құрылыс",
      "universityRu": "Казахский национальный исследовательский технический университет",
      "universityKz": "Қазақ ұлттық зерттеу техникалық университеті",
      "city": "Almaty",
      "type": "national",
      "threshold2024": 108,
      "grants2024": 200,
      "profileSubjects": ["Математика", "Физика"]
    },
    {
      "id": "4",
      "code": "B060",
      "nameRu": "Общая медицина",
      "nameKz": "Жалпы медицина",
      "universityRu": "Казахский национальный медицинский университет им. С.Д. Асфендиярова",
      "universityKz": "С.Д. Асфендияров атындағы Қазақ ұлттық медицина университеті",
      "city": "Almaty",
      "type": "national",
      "threshold2024": 128,
      "grants2024": 250,
      "profileSubjects": ["Биология", "Химия"]
    },
    {
      "id": "5",
      "code": "B061",
      "nameRu": "Стоматология",
      "nameKz": "Стоматология",
      "universityRu": "Казахский национальный медицинский университет им. С.Д. Асфендиярова",
      "universityKz": "С.Д. Асфендияров атындағы Қазақ ұлттық медицина университеті",
      "city": "Almaty",
      "type": "national",
      "threshold2024": 126,
      "grants2024": 100,
      "profileSubjects": ["Биология", "Химия"]
    },
    {
      "id": "6",
      "code": "B062",
      "nameRu": "Фармация",
      "nameKz": "Фармация",
      "universityRu": "Южно-Казахстанская медицинская академия",
      "universityKz": "Оңтүстік Қазақстан медицина академиясы",
      "city": "Shymkent",
      "type": "state",
      "threshold2024": 115,
      "grants2024": 80,
      "profileSubjects": ["Биология", "Химия"]
    },
    {
      "id": "7",
      "code": "B049",
      "nameRu": "Юриспруденция",
      "nameKz": "Құқықтану",
      "universityRu": "Евразийский национальный университет им. Л.Н. Гумилева",
      "universityKz": "Л.Н. Гумилев атындағы Еуразия ұлттық университеті",
      "city": "Astana",
      "type": "national",
      "threshold2024": 125,
      "grants2024": 120,
      "profileSubjects": ["Всемирная история", "Основы права"]
    },
    {
      "id": "8",
      "code": "B050",
      "nameRu": "Международное право",
      "nameKz": "Халықаралық құқық",
      "universityRu": "Казахский национальный университет им. аль-Фараби",
      "universityKz": "Әл-Фараби атындағы Қазақ ұлттық университеті",
      "city": "Almaty",
      "type": "national",
      "threshold2024": 127,
      "grants2024": 60,
      "profileSubjects": ["Всемирная история", "Основы права"]
    },
    {
      "id": "9",
      "code": "B044",
      "nameRu": "Экономика",
      "nameKz": "Экономика",
      "universityRu": "Казахский экономический университет им. Т. Рыскулова",
      "universityKz": "Т. Рысқұлов атындағы Қазақ экономикалық университеті",
      "city": "Almaty",
      "type": "national",
      "threshold2024": 115,
      "grants2024": 180,
      "profileSubjects": ["Математика", "География"]
    },
    {
      "id": "10",
      "code": "B045",
      "nameRu": "Менеджмент",
      "nameKz": "Менеджмент",
      "universityRu": "Назарбаев Университет",
      "universityKz": "Назарбаев Университеті",
      "city": "Astana",
      "type": "national",
      "threshold2024": 130,
      "grants2024": 50,
      "profileSubjects": ["Математика", "География"]
    },
    {
      "id": "11",
      "code": "B046",
      "nameRu": "Аудит и налогообложение",
      "nameKz": "Аудит және салық салу",
      "universityRu": "Евразийский национальный университет им. Л.Н. Гумилева",
      "universityKz": "Л.Н. Гумилев атындағы Еуразия ұлттық университеті",
      "city": "Astana",
      "type": "national",
      "threshold2024": 112,
      "grants2024": 90,
      "profileSubjects": ["Математика", "География"]
    },
    {
      "id": "12",
      "code": "B047",
      "nameRu": "Международные отношения",
      "nameKz": "Халықаралық қатынастар",
      "universityRu": "Казахский национальный университет им. аль-Фараби",
      "universityKz": "Әл-Фараби атындағы Қазақ ұлттық университеті",
      "city": "Almaty",
      "type": "national",
      "threshold2024": 128,
      "grants2024": 40,
      "profileSubjects": ["Всемирная история", "География"]
    },
    {
      "id": "13",
      "code": "B048",
      "nameRu": "Туризм",
      "nameKz": "Туризм",
      "universityRu": "Казахская академия спорта и туризма",
      "universityKz": "Қазақ спорт және туризм академиясы",
      "city": "Almaty",
      "type": "state",
      "threshold2024": 98,
      "grants2024": 100,
      "profileSubjects": ["Всемирная история", "География"]
    },
    {
      "id": "14",
      "code": "B051",
      "nameRu": "Переводческое дело",
      "nameKz": "Аударма ісі",
      "universityRu": "Казахский университет международных отношений и мировых языков",
      "universityKz": "Қазақ халықаралық қатынастар және әлем тілдері университеті",
      "city": "Almaty",
      "type": "state",
      "threshold2024": 118,
      "grants2024": 75,
      "profileSubjects": ["Иностранный язык", "Всемирная история"]
    },
    {
      "id": "15",
      "code": "B052",
      "nameRu": "Журналистика",
      "nameKz": "Журналистика",
      "universityRu": "Казахский национальный университет им. аль-Фараби",
      "universityKz": "Әл-Фараби атындағы Қазақ ұлттық университеті",
      "city": "Almaty",
      "type": "national",
      "threshold2024": 110,
      "grants2024": 85,
      "profileSubjects": ["Казахский/Русский язык", "Литература"]
    },
    {
      "id": "16",
      "code": "B053",
      "nameRu": "Филология",
      "nameKz": "Филология",
      "universityRu": "Евразийский национальный университет им. Л.Н. Гумилева",
      "universityKz": "Л.Н. Гумилев атындағы Еуразия ұлттық университеті",
      "city": "Astana",
      "type": "national",
      "threshold2024": 105,
      "grants2024": 120,
      "profileSubjects": ["Казахский/Русский язык", "Литература"]
    },
    {
      "id": "17",
      "code": "B054",
      "nameRu": "Экология",
      "nameKz": "Экология",
      "universityRu": "Казахский национальный университет им. аль-Фараби",
      "universityKz": "Әл-Фараби атындағы Қазақ ұлттық университеті",
      "city": "Almaty",
      "type": "national",
      "threshold2024": 100,
      "grants2024": 95,
      "profileSubjects": ["Биология", "География"]
    },
    {
      "id": "18",
      "code": "B055",
      "nameRu": "Почвоведение",
      "nameKz": "Топырақтану",
      "universityRu": "Казахский национальный аграрный университет",
      "universityKz": "Қазақ ұлттық аграрлық университеті",
      "city": "Almaty",
      "type": "national",
      "threshold2024": 90,
      "grants2024": 60,
      "profileSubjects": ["Биология", "География"]
    },
    {
      "id": "19",
      "code": "B063",
      "nameRu": "Нефтехимия",
      "nameKz": "Мұнай химиясы",
      "universityRu": "Казахский национальный университет им. аль-Фараби",
      "universityKz": "Әл-Фараби атындағы Қазақ ұлттық университеті",
      "city": "Almaty",
      "type": "national",
      "threshold2024": 115,
      "grants2024": 70,
      "profileSubjects": ["Химия", "Физика"]
    },
    {
      "id": "20",
      "code": "B064",
      "nameRu": "Химическая технология",
      "nameKz": "Химиялық технология",
      "universityRu": "Южно-Казахстанский университет им. М. Ауезова",
      "universityKz": "М. Әуезов атындағы Оңтүстік Қазақстан университеті",
      "city": "Shymkent",
      "type": "national",
      "threshold2024": 105,
      "grants2024": 85,
      "profileSubjects": ["Химия", "Физика"]
    },
    {
      "id": "21",
      "code": "B065",
      "nameRu": "Бизнес-аналитика",
      "nameKz": "Бизнес-аналитика",
      "universityRu": "КИМЭП Университет",
      "universityKz": "КИМЭП Университеті",
      "city": "Almaty",
      "type": "private",
      "threshold2024": 120,
      "grants2024": 30,
      "profileSubjects": ["Математика", "Иностранный язык"]
    },
    {
      "id": "22",
      "code": "B066",
      "nameRu": "Дизайн",
      "nameKz": "Дизайн",
      "universityRu": "Казахская национальная академия искусств им. Т. Жургенова",
      "universityKz": "Т. Жүргенов атындағы Қазақ ұлттық өнер академиясы",
      "city": "Almaty",
      "type": "national",
      "threshold2024": 95,
      "grants2024": 50,
      "profileSubjects": ["Творческий экзамен", "none"]
    },
    {
      "id": "23",
      "code": "B067",
      "nameRu": "Музыкальное искусство",
      "nameKz": "Музыка өнері",
      "universityRu": "Казахская национальная консерватория им. Курмангазы",
      "universityKz": "Құрманғазы атындағы Қазақ ұлттық консерваториясы",
      "city": "Almaty",
      "type": "national",
      "threshold2024": 85,
      "grants2024": 40,
      "profileSubjects": ["Творческий экзамен", "none"]
    },
    {
      "id": "24",
      "code": "B068",
      "nameRu": "Физическая культура и спорт",
      "nameKz": "Дене шынықтыру және спорт",
      "universityRu": "Казахская академия спорта и туризма",
      "universityKz": "Қазақ спорт және туризм академиясы",
      "city": "Almaty",
      "type": "state",
      "threshold2024": 80,
      "grants2024": 150,
      "profileSubjects": ["Творческий экзамен", "none"]
    },
    {
      "id": "25",
      "code": "B069",
      "nameRu": "Учитель иностранного языка",
      "nameKz": "Шет тілі мұғалімі",
      "universityRu": "Казахский национальный педагогический университет им. Абая",
      "universityKz": "Абай атындағы Қазақ ұлттық педагогикалық университеті",
      "city": "Almaty",
      "type": "national",
      "threshold2024": 108,
      "grants2024": 200,
      "profileSubjects": ["Иностранный язык", "География"]
    },
    {
      "id": "26",
      "code": "B070",
      "nameRu": "Гостиничный бизнес",
      "nameKz": "Қонақ үй бизнесі",
      "universityRu": "Казахский университет технологии и бизнеса",
      "universityKz": "Қазақ технология және бизнес университеті",
      "city": "Astana",
      "type": "private",
      "threshold2024": 92,
      "grants2024": 45,
      "profileSubjects": ["Иностранный язык", "География"]
    }
  ],
  "cities": [
    { "id": "all", "nameRu": "Все города", "nameKz": "Барлық қалалар" },
    { "id": "Almaty", "nameRu": "Алматы", "nameKz": "Алматы" },
    { "id": "Astana", "nameRu": "Астана", "nameKz": "Астана" },
    { "id": "Shymkent", "nameRu": "Шымкент", "nameKz": "Шымкент" }
  ],
  "universityTypes": [
    { "id": "all", "nameRu": "Все типы", "nameKz": "Барлық түрлері" },
    { "id": "national", "nameRu": "Национальный", "nameKz": "Ұлттық" },
    { "id": "state", "nameRu": "Государственный", "nameKz": "Мемлекеттік" },
    { "id": "private", "nameRu": "Частный", "nameKz": "Жеке" }
  ],
  "profileSubjects": [
    { "id": "math", "nameRu": "Математика", "nameKz": "Математика" },
    { "id": "physics", "nameRu": "Физика", "nameKz": "Физика" },
    { "id": "geography", "nameRu": "География", "nameKz": "География" },
    { "id": "foreign", "nameRu": "Иностранный язык", "nameKz": "Шет тілі" },
    { "id": "biology", "nameRu": "Биология", "nameKz": "Биология" },
    { "id": "chemistry", "nameRu": "Химия", "nameKz": "Химия" },
    { "id": "world_history", "nameRu": "Всемирная история", "nameKz": "Дүниежүзі тарихы" },
    { "id": "law", "nameRu": "Основы права", "nameKz": "Құқық негіздері" },
    { "id": "kaz_rus", "nameRu": "Казахский/Русский язык", "nameKz": "Қазақ/Орыс тілі" },
    { "id": "literature", "nameRu": "Литература", "nameKz": "Әдебиет" },
    { "id": "creative", "nameRu": "Творческий экзамен", "nameKz": "Шығармашылық емтихан" }
  ]
}
